ONEWEB-0282             
1 49000U 21060AK  26012.22666644  .00000028  00000+0  39241-4 0  9991
2 49000  87.9035 259.8346 0001361  73.8738 286.2543 13.16594592219086
ONEWEB-0283             
1 49001U 21060AL  26012.21558573  .00000121  00000+0  28293-3 0  9990
2 49001  87.9032 259.8371 0001447  69.7878 290.3408 13.16595128219099
ONEWEB-0284             
1 49002U 21060AM  26012.13325602  .00000155  00000+0  37117-3 0  9999
2 49002  87.9033 259.8437 0001201  87.8164 272.3104 13.16594314219067
ONEWEB-0285             
1 49075U 21075A   26012.07831375  .00000335  00000+0  89609-3 0  9990
2 49075  87.8928  21.6568 0001693  89.9671 270.1652 13.12441248214736
ONEWEB-0286             
1 49076U 21075B   26012.06110075 -.00000186  00000+0 -55186-3 0  9996
2 49076  87.8923  21.6916 0001958  92.2468 267.8885 13.12443794214081
ONEWEB-0287             
1 49077U 21075C   26012.04189535  .00000041  00000+0  72695-4 0  9995
2 49077  87.9091  36.9042 0002167 101.2300 258.9076 13.17647616213061
ONEWEB-0288             
1 49078U 21075D   26012.03751414 -.00000256  00000+0 -74822-3 0  9999
2 49078  87.8925  21.6599 0001715  93.8873 266.2452 13.12444007214700
ONEWEB-0289             
1 49079U 21075E   26012.08057310  .00000075  00000+0  15921-3 0  9991
2 49079  87.9085  36.9091 0001468 102.9982 257.1313 13.17649901213645
ONEWEB-0290             
1 49080U 21075F   26011.97777429  .00000054  00000+0  10612-3 0  9999
2 49080  87.9095  36.8941 0001194  97.3735 262.7532 13.17649412213046
ONEWEB-0291             
1 49081U 21075G   26012.11445750  .00000035  00000+0  57726-4 0  9993
2 49081  87.9098  36.8744 0001880 106.0985 254.0353 13.17650248213053
ONEWEB-0293             
1 49082U 21075H   26012.13977103 -.00000047  00000+0 -15454-3 0  9994
2 49082  87.9087  36.8865 0001649  96.9500 263.1820 13.17650616213081
ONEWEB-0294             
1 49083U 21075J   26012.04428988 -.00000394  00000+0 -11313-2 0  9991
2 49083  87.8929  21.6608 0001456  97.1381 262.9913 13.12444717214099
ONEWEB-0295             
1 49084U 21075K   26012.13890781  .00000004  00000+0 -23610-4 0  9998
2 49084  87.9086  36.8911 0001935 103.9645 256.1702 13.17650684213043
ONEWEB-0296             
1 49085U 21075L   26012.02396375  .00000185  00000+0  47978-3 0  9998
2 49085  87.8925  21.6683 0001821 101.7020 258.4313 13.12443750214098
ONEWEB-0297             
1 49086U 21075M   26011.97822202 -.00000295  00000+0 -85557-3 0  9994
2 49086  87.8918  21.7072 0001824  92.9443 267.1894 13.12444515214694
ONEWEB-0298             
1 49087U 21075N   26012.14328172 -.00000003  00000+0 -41249-4 0  9990
2 49087  87.9086  36.8869 0001955  91.5764 268.5591 13.17649830213071
ONEWEB-0299             
1 49088U 21075P   26012.14483058  .00000002  00000+0 -27285-4 0  9998
2 49088  87.9098  36.8514 0001932  97.5423 262.5928 13.17650555213057
