[{"OBJECT_NAME":"ONEWEB-0282","OBJECT_ID":"2021-060AK","EPOCH":"2026-01-12T05:26:23.980416","MEAN_MOTION":13.16594592,"ECCENTRICITY":0.00013619,"INCLINATION":87.9035,"RA_OF_ASC_NODE":259.8346,"ARG_OF_PERICENTER":73.8738,"MEAN_ANOMALY":286.2543,"EPHEMERIS_TYPE":0,"CLASSIFICATION_TYPE":"U","NORAD_CAT_ID":49000,"ELEMENT_SET_NO":999,"REV_AT_EPOCH":21908,"BSTAR":3.924101e-5,"MEAN_MOTION_DOT":2.8e-7,"MEAN_MOTION_DDOT":0},{"OBJECT_NAME":"ONEWEB-0283","OBJECT_ID":"2021-060AL","EPOCH":"2026-01-12T05:10:26.607072","MEAN_MOTION":13.16595128,"ECCENTRICITY":0.00014479,"INCLINATION":87.9032,"RA_OF_ASC_NODE":259.8371,"ARG_OF_PERICENTER":69.7878,"MEAN_ANOMALY":290.3408,"EPHEMERIS_TYPE":0,"CLASSIFICATION_TYPE":"U","NORAD_CAT_ID":49001,"ELEMENT_SET_NO":999,"REV_AT_EPOCH":21909,"BSTAR":0.00028293496,"MEAN_MOTION_DOT":1.21e-6,"MEAN_MOTION_DDOT":0},{"OBJECT_NAME":"ONEWEB-0284","OBJECT_ID":"2021-060AM","EPOCH":"2026-01-12T03:11:53.320128","MEAN_MOTION":13.16594314,"ECCENTRICITY":0.00012015,"INCLINATION":87.9033,"RA_OF_ASC_NODE":259.8437,"ARG_OF_PERICENTER":87.8164,"MEAN_ANOMALY":272.3104,"EPHEMERIS_TYPE":0,"CLASSIFICATION_TYPE":"U","NORAD_CAT_ID":49002,"ELEMENT_SET_NO":999,"REV_AT_EPOCH":21906,"BSTAR":0.00037117403,"MEAN_MOTION_DOT":1.55e-6,"MEAN_MOTION_DDOT":0},{"OBJECT_NAME":"ONEWEB-0285","OBJECT_ID":"2021-075A","EPOCH":"2026-01-12T01:52:46.308000","MEAN_MOTION":13.12441248,"ECCENTRICITY":0.0001693,"INCLINATION":87.8928,"RA_OF_ASC_NODE":21.6568,"ARG_OF_PERICENTER":89.9671,"MEAN_ANOMALY":270.1652,"EPHEMERIS_TYPE":0,"CLASSIFICATION_TYPE":"U","NORAD_CAT_ID":49075,"ELEMENT_SET_NO":999,"REV_AT_EPOCH":21473,"BSTAR":0.00089608828,"MEAN_MOTION_DOT":3.35e-6,"MEAN_MOTION_DDOT":0},{"OBJECT_NAME":"ONEWEB-0286","OBJECT_ID":"2021-075B","EPOCH":"2026-01-12T01:27:59.104800","MEAN_MOTION":13.12443794,"ECCENTRICITY":0.00019582,"INCLINATION":87.8923,"RA_OF_ASC_NODE":21.6916,"ARG_OF_PERICENTER":92.2468,"MEAN_ANOMALY":267.8885,"EPHEMERIS_TYPE":0,"CLASSIFICATION_TYPE":"U","NORAD_CAT_ID":49076,"ELEMENT_SET_NO":999,"REV_AT_EPOCH":21408,"BSTAR":-0.0005518608,"MEAN_MOTION_DOT":-1.86e-6,"MEAN_MOTION_DDOT":0},{"OBJECT_NAME":"ONEWEB-0287","OBJECT_ID":"2021-075C","EPOCH":"2026-01-12T01:00:19.758240","MEAN_MOTION":13.17647616,"ECCENTRICITY":0.00021671,"INCLINATION":87.9091,"RA_OF_ASC_NODE":36.9042,"ARG_OF_PERICENTER":101.23,"MEAN_ANOMALY":258.9076,"EPHEMERIS_TYPE":0,"CLASSIFICATION_TYPE":"U","NORAD_CAT_ID":49077,"ELEMENT_SET_NO":999,"REV_AT_EPOCH":21306,"BSTAR":7.2695469e-5,"MEAN_MOTION_DOT":4.1e-7,"MEAN_MOTION_DDOT":0},{"OBJECT_NAME":"ONEWEB-0288","OBJECT_ID":"2021-075D","EPOCH":"2026-01-12T00:54:01.221696","MEAN_MOTION":13.12444007,"ECCENTRICITY":0.00017159,"INCLINATION":87.8925,"RA_OF_ASC_NODE":21.6599,"ARG_OF_PERICENTER":93.8873,"MEAN_ANOMALY":266.2452,"EPHEMERIS_TYPE":0,"CLASSIFICATION_TYPE":"U","NORAD_CAT_ID":49078,"ELEMENT_SET_NO":999,"REV_AT_EPOCH":21470,"BSTAR":-0.00074821544,"MEAN_MOTION_DOT":-2.56e-6,"MEAN_MOTION_DDOT":0},{"OBJECT_NAME":"ONEWEB-0289","OBJECT_ID":"2021-075E","EPOCH":"2026-01-12T01:56:01.515840","MEAN_MOTION":13.17649901,"ECCENTRICITY":0.00014689,"INCLINATION":87.9085,"RA_OF_ASC_NODE":36.9091,"ARG_OF_PERICENTER":102.9982,"MEAN_ANOMALY":257.1313,"EPHEMERIS_TYPE":0,"CLASSIFICATION_TYPE":"U","NORAD_CAT_ID":49079,"ELEMENT_SET_NO":999,"REV_AT_EPOCH":21364,"BSTAR":0.00015921065,"MEAN_MOTION_DOT":7.5e-7,"MEAN_MOTION_DDOT":0},{"OBJECT_NAME":"ONEWEB-0290","OBJECT_ID":"2021-075F","EPOCH":"2026-01-11T23:27:59.698656","MEAN_MOTION":13.17649412,"ECCENTRICITY":0.00011947,"INCLINATION":87.9095,"RA_OF_ASC_NODE":36.8941,"ARG_OF_PERICENTER":97.3735,"MEAN_ANOMALY":262.7532,"EPHEMERIS_TYPE":0,"CLASSIFICATION_TYPE":"U","NORAD_CAT_ID":49080,"ELEMENT_SET_NO":999,"REV_AT_EPOCH":21304,"BSTAR":0.00010612386,"MEAN_MOTION_DOT":5.4e-7,"MEAN_MOTION_DDOT":0},{"OBJECT_NAME":"ONEWEB-0291","OBJECT_ID":"2021-075G","EPOCH":"2026-01-12T02:44:49.128000","MEAN_MOTION":13.17650248,"ECCENTRICITY":0.00018804,"INCLINATION":87.9098,"RA_OF_ASC_NODE":36.8744,"ARG_OF_PERICENTER":106.0985,"MEAN_ANOMALY":254.0353,"EPHEMERIS_TYPE":0,"CLASSIFICATION_TYPE":"U","NORAD_CAT_ID":49081,"ELEMENT_SET_NO":999,"REV_AT_EPOCH":21305,"BSTAR":5.7725776e-5,"MEAN_MOTION_DOT":3.5e-7,"MEAN_MOTION_DDOT":0},{"OBJECT_NAME":"ONEWEB-0293","OBJECT_ID":"2021-075H","EPOCH":"2026-01-12T03:21:16.216992","MEAN_MOTION":13.17650616,"ECCENTRICITY":0.00016494,"INCLINATION":87.9087,"RA_OF_ASC_NODE":36.8865,"ARG_OF_PERICENTER":96.95,"MEAN_ANOMALY":263.182,"EPHEMERIS_TYPE":0,"CLASSIFICATION_TYPE":"U","NORAD_CAT_ID":49082,"ELEMENT_SET_NO":999,"REV_AT_EPOCH":21308,"BSTAR":-0.00015453678,"MEAN_MOTION_DOT":-4.7e-7,"MEAN_MOTION_DDOT":0},{"OBJECT_NAME":"ONEWEB-0294","OBJECT_ID":"2021-075J","EPOCH":"2026-01-12T01:03:46.645632","MEAN_MOTION":13.12444717,"ECCENTRICITY":0.00014561,"INCLINATION":87.8929,"RA_OF_ASC_NODE":21.6608,"ARG_OF_PERICENTER":97.1381,"MEAN_ANOMALY":262.9913,"EPHEMERIS_TYPE":0,"CLASSIFICATION_TYPE":"U","NORAD_CAT_ID":49083,"ELEMENT_SET_NO":999,"REV_AT_EPOCH":21409,"BSTAR":-0.0011313124,"MEAN_MOTION_DOT":-3.94e-6,"MEAN_MOTION_DDOT":0},{"OBJECT_NAME":"ONEWEB-0295","OBJECT_ID":"2021-075K","EPOCH":"2026-01-12T03:20:01.634784","MEAN_MOTION":13.17650684,"ECCENTRICITY":0.00019354,"INCLINATION":87.9086,"RA_OF_ASC_NODE":36.8911,"ARG_OF_PERICENTER":103.9645,"MEAN_ANOMALY":256.1702,"EPHEMERIS_TYPE":0,"CLASSIFICATION_TYPE":"U","NORAD_CAT_ID":49084,"ELEMENT_SET_NO":999,"REV_AT_EPOCH":21304,"BSTAR":-2.3609602e-5,"MEAN_MOTION_DOT":4.0e-8,"MEAN_MOTION_DDOT":0},{"OBJECT_NAME":"ONEWEB-0296","OBJECT_ID":"2021-075L","EPOCH":"2026-01-12T00:34:30.468000","MEAN_MOTION":13.1244375,"ECCENTRICITY":0.00018212,"INCLINATION":87.8925,"RA_OF_ASC_NODE":21.6683,"ARG_OF_PERICENTER":101.702,"MEAN_ANOMALY":258.4313,"EPHEMERIS_TYPE":0,"CLASSIFICATION_TYPE":"U","NORAD_CAT_ID":49085,"ELEMENT_SET_NO":999,"REV_AT_EPOCH":21409,"BSTAR":0.00047978098,"MEAN_MOTION_DOT":1.85e-6,"MEAN_MOTION_DDOT":0},{"OBJECT_NAME":"ONEWEB-0297","OBJECT_ID":"2021-075M","EPOCH":"2026-01-11T23:28:38.382528","MEAN_MOTION":13.12444515,"ECCENTRICITY":0.00018241,"INCLINATION":87.8918,"RA_OF_ASC_NODE":21.7072,"ARG_OF_PERICENTER":92.9443,"MEAN_ANOMALY":267.1894,"EPHEMERIS_TYPE":0,"CLASSIFICATION_TYPE":"U","NORAD_CAT_ID":49086,"ELEMENT_SET_NO":999,"REV_AT_EPOCH":21469,"BSTAR":-0.00085556943,"MEAN_MOTION_DOT":-2.95e-6,"MEAN_MOTION_DDOT":0},{"OBJECT_NAME":"ONEWEB-0298","OBJECT_ID":"2021-075N","EPOCH":"2026-01-12T03:26:19.540608","MEAN_MOTION":13.1764983,"ECCENTRICITY":0.00019558,"INCLINATION":87.9086,"RA_OF_ASC_NODE":36.8869,"ARG_OF_PERICENTER":91.5764,"MEAN_ANOMALY":268.5591,"EPHEMERIS_TYPE":0,"CLASSIFICATION_TYPE":"U","NORAD_CAT_ID":49087,"ELEMENT_SET_NO":999,"REV_AT_EPOCH":21307,"BSTAR":-4.1249097e-5,"MEAN_MOTION_DOT":-3.0e-8,"MEAN_MOTION_DDOT":0},{"OBJECT_NAME":"ONEWEB-0299","OBJECT_ID":"2021-075P","EPOCH":"2026-01-12T03:28:33.362112","MEAN_MOTION":13.17650555,"ECCENTRICITY":0.00019324,"INCLINATION":87.9098,"RA_OF_ASC_NODE":36.8514,"ARG_OF_PERICENTER":97.5423,"MEAN_ANOMALY":262.5928,"EPHEMERIS_TYPE":0,"CLASSIFICATION_TYPE":"U","NORAD_CAT_ID":49088,"ELEMENT_SET_NO":999,"REV_AT_EPOCH":21305,"BSTAR":-2.7284639e-5,"MEAN_MOTION_DOT":2.0e-8,"MEAN_MOTION_DDOT":0}]
